NORAD_CAT_ID,OBJECT_NAME,OBJECT_TYPE,EPOCH,MEAN_MOTION,ECCENTRICITY,INCLINATION,RA_OF_ASC_NODE,ARG_OF_PERICENTER,MEAN_ANOMALY,BSTAR,MEAN_MOTION_DOT,MEAN_MOTION_DDOT,TLE_LINE0,TLE_LINE1,TLE_LINE2,SEMIMAJOR_AXIS,PERIOD,APOGEE,PERIGEE,DECAYED
53936.0,STARLINK-4791,PAYLOAD,2023-02-04 19:05:12,15.08837344,0.000177,53.2176,326.702,62.1232,297.9939,7.3056e-06,-1.72e-06,0.0,0 STARLINK-4791,1 53936U 22119BC  23035.79528055 -.00000172  00000-0  73056-5 0  9992,2 53936  53.2176 326.7020 0001770  62.1232 297.9939 15.08837344 21625,6917.889,95.438,540.978,538.529,0.0
53936.0,STARLINK-4791,PAYLOAD,2023-02-05 01:26:44,15.08846475,0.0001575,53.2184,325.5102,88.6564,271.4608,3.4707e-05,2.64e-06,0.0,0 STARLINK-4791,1 53936U 22119BC  23036.06023232  .00000264  00000-0  34707-4 0  9990,2 53936  53.2184 325.5102 0001575  88.6564 271.4608 15.08846475 21238,6917.861,95.437,540.815,538.636,0.0
53936.0,STARLINK-4791,PAYLOAD,2023-02-05 04:37:29,15.08851103,0.0001479,53.2176,324.9143,84.7392,275.3769,4.4493e-05,4.2e-06,0.0,0 STARLINK-4791,1 53936U 22119BC  23036.19270790  .00000420  00000-0  44493-4 0  9994,2 53936  53.2176 324.9143 0001479  84.7392 275.3769 15.08851103 21680,6917.846,95.437,540.735,538.688,0.0
53936.0,STARLINK-4791,PAYLOAD,2023-02-06 01:17:31,15.08836678,0.0001235,53.2173,321.0504,76.9588,283.1542,-1.7693e-05,-5.69e-06,0.0,0 STARLINK-4791,1 53936U 22119BC  23037.05383947 -.00000569  00000-0 -17693-4 0  9997,2 53936  53.2173 321.0504 0001235  76.9588 283.1542 15.08836678 21389,6917.891,95.438,540.61,538.901,0.0
53936.0,STARLINK-4791,PAYLOAD,2023-02-06 04:28:17,15.08841947,0.0001345,53.2175,320.4524,90.1935,269.9212,-5.8041e-06,-3.8e-06,0.0,0 STARLINK-4791,1 53936U 22119BC  23037.18631518 -.00000380  00000-0 -58041-5 0  9995,2 53936  53.2175 320.4524 0001345  90.1935 269.9212 15.08841947 21833,6917.874,95.437,540.67,538.809,0.0
53936.0,STARLINK-4791,PAYLOAD,2023-02-06 18:46:46,15.08842338,0.0001379,53.2165,317.7767,90.9661,269.1489,-5.5198e-05,-1.166e-05,0.0,0 STARLINK-4791,1 53936U 22119BC  23037.78247773 -.00001166  00000-0 -55198-4 0  9999,2 53936  53.2165 317.7767 0001379  90.9661 269.1489 15.08842338 21924,6917.873,95.437,540.692,538.784,0.0
53936.0,STARLINK-4791,PAYLOAD,2023-02-07 01:08:17,15.08850832,0.0001386,53.2165,316.5883,80.5285,279.5864,2.3033e-05,7.9e-07,0.0,0 STARLINK-4791,1 53936U 22119BC  23038.04742835  .00000079  00000-0  23033-4 0  9991,2 53936  53.2165 316.5883 0001386  80.5285 279.5864 15.08850832 21532,6917.847,95.437,540.671,538.753,0.0
53936.0,STARLINK-4791,PAYLOAD,2023-02-07 04:19:03,15.08853318,0.000143,53.2162,315.9928,82.3726,277.7428,4.57e-05,4.4e-06,0.0,0 STARLINK-4791,1 53936U 22119BC  23038.17990507  .00000440  00000-0  45700-4 0  9993,2 53936  53.2162 315.9928 0001430  82.3726 277.7428 15.08853318 21989,6917.84,95.437,540.694,538.715,0.0
53936.0,STARLINK-4791,PAYLOAD,2023-02-07 21:48:19,15.08824748,0.0001097,53.2168,312.7205,89.5293,270.5824,0.00016935,2.407e-05,0.0,0 STARLINK-4791,1 53936U 22119BC  23038.90855505  .00002407  00000-0  16935-3 0  9994,2 53936  53.2168 312.7205 0001097  89.5293 270.5824 15.08824748 22094,6917.927,95.439,540.551,539.033,0.0
53936.0,STARLINK-4791,PAYLOAD,2023-02-08 04:09:50,15.08852609,0.0001222,53.2171,311.5325,93.7455,266.3677,0.00010835,1.438e-05,0.0,0 STARLINK-4791,1 53936U 22119BC  23039.17350196  .00001438  00000-0  10835-3 0  9996,2 53936  53.2171 311.5325 0001222  93.7455 266.3677 15.08852609 21708,6917.842,95.437,540.552,538.861,0.0
53936.0,STARLINK-4791,PAYLOAD,2023-02-08 21:39:07,15.08828191,0.0001055,53.2169,308.2603,95.8621,264.2492,-0.00018512,-3.232e-05,0.0,0 STARLINK-4791,1 53936U 22119BC  23039.90217062 -.00003232  00000-0 -18512-3 0  9997,2 53936  53.2169 308.2603 0001055  95.8621 264.2492 15.08828191 22240,6917.916,95.438,540.511,539.052,0.0
53936.0,STARLINK-4791,PAYLOAD,2023-02-09 02:25:16,15.08833664,9.66e-05,53.2178,307.3709,76.1638,283.9461,-0.0001161,-2.135e-05,0.0,0 STARLINK-4791,1 53936U 22119BC  23040.10088673 -.00002135  00000-0 -11610-3 0  9998,2 53936  53.2178 307.3709 0000966  76.1638 283.9461 15.08833664 21847,6917.9,95.438,540.433,539.096,0.0
53936.0,STARLINK-4791,PAYLOAD,2023-02-09 04:00:39,15.08839492,9.64e-05,53.2168,307.0711,72.9879,287.1218,-7.3873e-05,-1.463e-05,0.0,0 STARLINK-4791,1 53936U 22119BC  23040.16712187 -.00001463  00000-0 -73873-4 0  9991,2 53936  53.2168 307.0711 0000964  72.9879 287.1218 15.08839492 22285,6917.882,95.438,540.414,539.08,0.0
53936.0,STARLINK-4791,PAYLOAD,2023-02-10 02:16:01,15.08860753,9.67e-05,53.2176,302.909,73.2805,286.8294,0.00010118,1.324e-05,0.0,0 STARLINK-4791,1 53936U 22119BC  23041.09446356  .00001324  00000-0  10118-3 0  9992,2 53936  53.2176 302.9090 0000967  73.2805 286.8294 15.08860753 21995,6917.817,95.436,540.351,539.013,0.0
53936.0,STARLINK-4791,PAYLOAD,2023-02-10 21:20:41,15.08836657,9.95e-05,53.217,299.34,64.4092,295.7003,2.3695e-05,8.9e-07,0.0,0 STARLINK-4791,1 53936U 22119BC  23041.88936434  .00000089  00000-0  23695-4 0  9992,2 53936  53.2170 299.3400 0000995  64.4092 295.7003 15.08836657 22112,6917.891,95.438,540.444,539.067,0.0
53936.0,STARLINK-4791,PAYLOAD,2023-02-11 00:31:26,15.08850547,5.99e-05,53.2171,298.7453,122.3582,237.7468,0.000134,1.846e-05,0.0,0 STARLINK-4791,1 53936U 22119BC  23042.02183043  .00001846  00000-0  13400-3 0  9993,2 53936  53.2171 298.7453 0000599 122.3582 237.7468 15.08850547 22139,6917.848,95.437,540.128,539.299,0.0
53936.0,STARLINK-4791,PAYLOAD,2023-02-12 01:57:37,15.08848549,0.0001193,53.2172,293.9887,60.4389,299.6722,-0.00011346,-2.094e-05,0.0,0 STARLINK-4791,1 53936U 22119BC  23043.08168156 -.00002094  00000-0 -11346-3 0  9993,2 53936  53.2172 293.9887 0001193  60.4389 299.6722 15.08848549 22292,6917.854,95.437,540.545,538.894,0.0
53936.0,STARLINK-4791,PAYLOAD,2023-02-13 01:48:24,15.08843581,0.0001156,53.2167,289.53,54.685,305.425,-2.9771e-05,-7.62e-06,0.0,0 STARLINK-4791,1 53936U 22119BC  23044.07528624 -.00000762  00000-0 -29771-4 0  9995,2 53936  53.2167 289.5300 0001156  54.6850 305.4250 15.08843581 22444,6917.869,95.437,540.534,538.935,0.0
53936.0,STARLINK-4791,PAYLOAD,2023-02-13 09:45:20,15.0884224,9.44e-05,53.2167,288.0441,68.0738,292.0354,-7.6633e-05,-1.507e-05,0.0,0 STARLINK-4791,1 53936U 22119BC  23044.40648728 -.00001507  00000-0 -76633-4 0  9997,2 53936  53.2167 288.0441 0000944  68.0738 292.0354 15.08842240 22922,6917.874,95.437,540.392,539.085,0.0
53936.0,STARLINK-4791,PAYLOAD,2023-02-14 01:39:11,15.08853048,0.0001165,53.2171,285.0692,73.2694,286.8426,4.4483e-05,4.2e-06,0.0,0 STARLINK-4791,1 53936U 22119BC  23045.06888010  .00000420  00000-0  44483-4 0  9999,2 53936  53.2171 285.0692 0001165  73.2694 286.8426 15.08853048 22599,6917.841,95.437,540.511,538.9,0.0
53936.0,STARLINK-4791,PAYLOAD,2023-02-14 17:33:04,15.08824723,0.0001746,53.2182,282.0988,63.7454,296.3717,5.0369e-05,5.13e-06,0.0,0 STARLINK-4791,1 53936U 22119BC  23045.73130199  .00000513  00000-0  50369-4 0  9994,2 53936  53.2182 282.0988 0001746  63.7454 296.3717 15.08824723 22697,6917.927,95.439,541.0,538.584,0.0
53936.0,STARLINK-4791,PAYLOAD,2023-02-15 01:29:59,15.08835909,0.0001249,53.218,280.6102,74.863,285.2501,3.3611e-07,-2.83e-06,0.0,0 STARLINK-4791,1 53936U 22119BC  23046.06249782 -.00000283  00000-0  33611-6 0  9998,2 53936  53.2180 280.6102 0001249  74.8630 285.2501 15.08835909 22746,6917.893,95.438,540.622,538.894,0.0
53936.0,STARLINK-4791,PAYLOAD,2023-02-15 15:48:27,15.08842344,0.0001097,53.2165,277.9314,83.2094,276.9022,1.6035e-05,-3.3e-07,0.0,0 STARLINK-4791,1 53936U 22119BC  23046.65865306 -.00000033  00000-0  16035-4 0  9991,2 53936  53.2165 277.9314 0001097  83.2094 276.9022 15.08842344 22838,6917.873,95.437,540.497,538.979,0.0
53936.0,STARLINK-4791,PAYLOAD,2023-02-15 22:09:58,15.08862505,0.0001019,53.2166,276.7418,89.6781,270.4328,0.00012553,1.712e-05,0.0,0 STARLINK-4791,1 53936U 22119BC  23046.92359433  .00001712  00000-0  12553-3 0  9994,2 53936  53.2166 276.7418 0001019  89.6781 270.4328 15.08862505 23300,6917.812,95.436,540.382,538.972,0.0
53936.0,STARLINK-4791,PAYLOAD,2023-02-16 07:42:17,15.08856197,0.0001511,53.2172,274.9574,62.5064,297.6082,2.9558e-05,1.83e-06,0.0,0 STARLINK-4791,1 53936U 22119BC  23047.32103960  .00000183  00000-0  29558-4 0  9996,2 53936  53.2172 274.9574 0001511  62.5064 297.6082 15.08856197 22937,6917.831,95.437,540.741,538.651,0.0
53936.0,STARLINK-4791,PAYLOAD,2023-02-16 15:39:15,15.08828819,0.0001262,53.2175,273.4718,79.5287,280.5847,-6.8017e-05,-1.37e-05,0.0,0 STARLINK-4791,1 53936U 22119BC  23047.65226144 -.00001370  00000-0 -68017-4 0  9996,2 53936  53.2175 273.4718 0001262  79.5287 280.5847 15.08828819 22987,6917.915,95.438,540.653,538.907,0.0
53936.0,STARLINK-4791,PAYLOAD,2023-02-17 07:33:06,15.08829635,0.000108,53.2182,270.497,80.764,279.3474,-9.7906e-05,-1.845e-05,0.0,0 STARLINK-4791,1 53936U 22119BC  23048.31466354 -.00001845  00000-0 -97906-4 0  9995,2 53936  53.2182 270.4970 0001080  80.7640 279.3474 15.08829635 23516,6917.912,95.438,540.524,539.03,0.0
53936.0,STARLINK-4791,PAYLOAD,2023-02-17 18:40:48,15.08839783,0.0001105,53.2203,268.4143,102.2248,257.8868,-0.00019494,-3.389e-05,0.0,0 STARLINK-4791,1 53936U 22119BC  23048.77834216 -.00003389  00000-0 -19494-3 0  9991,2 53936  53.2203 268.4143 0001105 102.2248 257.8868 15.08839783 23154,6917.881,95.438,540.51,538.982,0.0
53936.0,STARLINK-4791,PAYLOAD,2023-02-17 20:16:11,15.08837842,0.000132,53.2164,268.1182,67.3589,292.7543,-0.00015622,-2.773e-05,0.0,0 STARLINK-4791,1 53936U 22119BC  23048.84458323 -.00002773  00000-0 -15622-3 0  9995,2 53936  53.2164 268.1182 0001320  67.3589 292.7543 15.08837842 23598,6917.887,95.438,540.665,538.839,0.0
53936.0,STARLINK-4791,PAYLOAD,2023-02-18 01:02:20,15.08846623,8.24e-05,53.2177,267.226,70.1805,289.9276,-0.0001376,-2.477e-05,0.0,0 STARLINK-4791,1 53936U 22119BC  23049.04329574 -.00002477  00000-0 -13760-3 0  9995,2 53936  53.2177 267.2260 0000824  70.1805 289.9276 15.08846623 23194,6917.86,95.437,540.295,539.155,0.0
